[{"OBJECT_NAME":"STARLINK-31859","OBJECT_ID":"2024-097P","EPOCH":"2026-03-09T12:56:25.613376","MEAN_MOTION":15.27571299,"ECCENTRICITY":0.00012421,"INCLINATION":43.0029,"RA_OF_ASC_NODE":268.2948,"ARG_OF_PERICENTER":243.0157,"MEAN_ANOMALY":117.0568,"EPHEMERIS_TYPE":0,"CLASSIFICATION_TYPE":"U","NORAD_CAT_ID":59848,"ELEMENT_SET_NO":999,"REV_AT_EPOCH":10197,"BSTAR":-2.0567973e-5,"MEAN_MOTION_DOT":-8.28e-6,"MEAN_MOTION_DDOT":0},{"OBJECT_NAME":"TANSTAAFL-2","OBJECT_ID":"2024-247B","EPOCH":"2026-03-08T04:58:51.015360","MEAN_MOTION":15.28016845,"ECCENTRICITY":0.00030723,"INCLINATION":44.988,"RA_OF_ASC_NODE":125.0934,"ARG_OF_PERICENTER":298.8909,"MEAN_ANOMALY":61.1666,"EPHEMERIS_TYPE":0,"CLASSIFICATION_TYPE":"U","NORAD_CAT_ID":62378,"ELEMENT_SET_NO":999,"REV_AT_EPOCH":6750,"BSTAR":0.00050871624,"MEAN_MOTION_DOT":0.00013897,"MEAN_MOTION_DDOT":0}]
